[{"OBJECT_NAME":"STARLINK-30226","OBJECT_ID":"2023-113C","EPOCH":"2026-03-09T22:00:01.999584","MEAN_MOTION":15.26027022,"ECCENTRICITY":0.00018877,"INCLINATION":43.0048,"RA_OF_ASC_NODE":14.6037,"ARG_OF_PERICENTER":265.2109,"MEAN_ANOMALY":41.7295,"EPHEMERIS_TYPE":0,"CLASSIFICATION_TYPE":"U","NORAD_CAT_ID":57497,"ELEMENT_SET_NO":999,"REV_AT_EPOCH":577,"BSTAR":0.027167173,"MEAN_MOTION_DOT":0.00769271,"MEAN_MOTION_DDOT":0},{"OBJECT_NAME":"FLOCK 4G-35","OBJECT_ID":"2025-009CC","EPOCH":"2026-03-09T18:16:29.173728","MEAN_MOTION":15.33603414,"ECCENTRICITY":0.00032423,"INCLINATION":97.4012,"RA_OF_ASC_NODE":151.7924,"ARG_OF_PERICENTER":307.1268,"MEAN_ANOMALY":52.9678,"EPHEMERIS_TYPE":0,"CLASSIFICATION_TYPE":"U","NORAD_CAT_ID":62683,"ELEMENT_SET_NO":999,"REV_AT_EPOCH":12140,"BSTAR":0.00099271567,"MEAN_MOTION_DOT":0.00032274,"MEAN_MOTION_DDOT":0}]
